COSMOS 1408 DEB         
1 49527U 82092Q   24316.18430415  .00182623  00000+0  10222-1 0  9999
2 49527  82.3678 235.2363 0248646 326.8557  31.7285 14.90236216156645
COSMOS 1408 DEB         
1 49537U 82092AA  24315.51698919  .00061007  00000+0  18261-2 0  9995
2 49537  82.5469 148.2571 0091607 268.6397  90.4348 15.30156663164157
COSMOS 1408 DEB         
1 49539U 82092AC  24316.00198570  .01032548  00000+0  21368-1 0  9990
2 49539  82.1481 208.7536 0130905 351.6065   8.2983 15.34520646156548
COSMOS 1408 DEB         
1 49619U 82092DL  24316.04518344  .00227825  00000+0  72388-2 0  9990
2 49619  81.9291 171.0839 0170334 350.7065   9.1023 15.18945919156766
COSMOS 1408 DEB         
1 50032U 82092RU  24315.76002082  .00012024  00000+0  29460-3 0  9993
2 50032  82.5628 103.8226 0016847 206.4410 153.5978 15.40447907164817
COSMOS 1408 DEB         
1 50058U 82092SW  24316.16413977  .00032817  00000+0  71000-3 0  9994
2 50058  82.6124 117.7420 0026481 115.3366 245.0629 15.43929740166488
COSMOS 1408 DEB         
1 50351U 82092ABM 24315.53488224  .00185088  00000+0  33559-2 0  9992
2 50351  82.5098 150.0503 0081202 287.6018  71.6372 15.45347994163813
COSMOS 1408 DEB         
1 50404U 82092ADS 24316.22637272  .00096586  00000+0  83698-2 0  9990
2 50404  82.2358 241.9487 0371472  59.8708 303.8760 14.56022938153140
COSMOS 1408 DEB         
1 50621U 82092ALR 24315.75657694  .00030620  00000+0  78209-3 0  9998
2 50621  82.5738 121.4263 0042273 156.6566 203.6611 15.38377539161122
COSMOS 1408 DEB         
1 50689U 82092APM 24315.72114599  .00115315  00000+0  99304-3 0  9995
2 50689  82.5046  90.8392 0025886  44.6296 315.7042 15.68471349161341
COSMOS 1408 DEB         
1 51184U 82092AZJ 24315.42378521  .00079144  00000+0  88783-3 0  9998
2 51184  82.4862  87.4512 0014173  53.5535 306.7027 15.62245548159226
COSMOS 1408 DEB         
1 51435U 82092BKH 24315.72379064  .00128890  00000+0  16955-2 0  9997
2 51435  82.5452 119.8100 0033810 172.7093 187.4661 15.57338812156671
COSMOS 1408 DEB         
1 52066U 82092BUU 24315.99702827  .00119456  00000+0  32295-2 0  9997
2 52066  82.5128 157.3371 0106567 323.5042  35.8966 15.31658566148712
